{"type": "FeatureCollection", "features": [ {"type": "Feature", "properties": {"norad_id": 31514, "name": "FENGYUN 1C DEB", "group": "fengyun-1c-debris", "lat": 69.3880859387444, "lon": 85.54959218232626, "alt_km": 782.6400646607699, "timestamp": "2025-12-05T11:32:56.301418+00:00", "meta": {"OBJECT_NAME": "FENGYUN 1C DEB", "OBJECT_ID": "1999-025BXD", "EPOCH": "2025-11-30T16:07:05.297376", "MEAN_MOTION": 14.20861654, "ECCENTRICITY": 0.00517375, "INCLINATION": 99.2458, "RA_OF_ASC_NODE": 234.8568, "ARG_OF_PERICENTER": 150.191, "MEAN_ANOMALY": 210.223, "EPHEMERIS_TYPE": 0, "CLASSIFICATION_TYPE": "U", "NORAD_CAT_ID": 31514, "ELEMENT_SET_NO": 999, "REV_AT_EPOCH": 69153, "BSTAR": 0.0016030637, "MEAN_MOTION_DOT": 3.466e-05, "MEAN_MOTION_DDOT": 0}, "tle": {"line1": "1 31514U 99025BXD 25334.67158909  .00003466  00000+0  16031-2 0  9992", "line2": "2 31514  99.2458 234.8568 0051737 150.1910 210.2230 14.20861654691530"}}, "geometry": {"type": "Point", "coordinates": [85.54959218232626, 69.3880859387444]}}, {"type": "Feature", "properties": {"norad_id": 31516, "name": "FENGYUN 1C DEB", "group": "fengyun-1c-debris", "lat": -35.77797753715058, "lon": 101.76032620992625, "alt_km": 765.641394653644, "timestamp": "2025-12-05T11:32:56.301428+00:00", "meta": {"OBJECT_NAME": "FENGYUN 1C DEB", "OBJECT_ID": "1999-025BXF", "EPOCH": "2025-12-04T13:52:24.051360", "MEAN_MOTION": 14.25380122, "ECCENTRICITY": 0.0148276, "INCLINATION": 98.8324, "RA_OF_ASC_NODE": 94.4173, "ARG_OF_PERICENTER": 262.336, "MEAN_ANOMALY": 108.1775, "EPHEMERIS_TYPE": 0, "CLASSIFICATION_TYPE": "U", "NORAD_CAT_ID": 31516, "ELEMENT_SET_NO": 999, "REV_AT_EPOCH": 96376, "BSTAR": 0.0008134, "MEAN_MOTION_DOT": 2.104e-05, "MEAN_MOTION_DDOT": 0}, "tle": {"line1": "1 31516U 99025BXF 25338.57805615  .00002104  00000+0  81340-3 0  9994", "line2": "2 31516  98.8324  94.4173 0148276 262.3360 108.1775 14.25380122963768"}}, "geometry": {"type": "Point", "coordinates": [101.76032620992625, -35.77797753715058]}}, {"type": "Feature", "properties": {"norad_id": 31519, "name": "FENGYUN 1C DEB", "group": "fengyun-1c-debris", "lat": 45.41863126427844, "lon": 165.0243574306118, "alt_km": 834.1250787513309, "timestamp": "2025-12-05T11:32:56.301438+00:00", "meta": {"OBJECT_NAME": "FENGYUN 1C DEB", "OBJECT_ID": "1999-025BXJ", "EPOCH": "2025-12-02T05:18:38.960928", "MEAN_MOTION": 14.23363236, "ECCENTRICITY": 0.0051768, "INCLINATION": 98.5732, "RA_OF_ASC_NODE": 333.0436, "ARG_OF_PERICENTER": 273.8971, "MEAN_ANOMALY": 85.629, "EPHEMERIS_TYPE": 0, "CLASSIFICATION_TYPE": "U", "NORAD_CAT_ID": 31519, "ELEMENT_SET_NO": 999, "REV_AT_EPOCH": 64615, "BSTAR": 0.00061131, "MEAN_MOTION_DOT": 1.362e-05, "MEAN_MOTION_DDOT": 0}, "tle": {"line1": "1 31519U 99025BXJ 25336.22128427  .00001362  00000+0  61131-3 0  9997", "line2": "2 31519  98.5732 333.0436 0051768 273.8971  85.6290 14.23363236646156"}}, "geometry": {"type": "Point", "coordinates": [165.0243574306118, 45.41863126427844]}}, {"type": "Feature", "properties": {"norad_id": 31522, "name": "FENGYUN 1C DEB", "group": "fengyun-1c-debris", "lat": -3.9206228432314454, "lon": -1.4053300135025302, "alt_km": 905.4942720084227, "timestamp": "2025-12-05T11:32:56.301448+00:00", "meta": {"OBJECT_NAME": "FENGYUN 1C DEB", "OBJECT_ID": "1999-025BXM", "EPOCH": "2025-12-02T11:43:53.698944", "MEAN_MOTION": 14.03969195, "ECCENTRICITY": 0.00429805, "INCLINATION": 98.7082, "RA_OF_ASC_NODE": 355.1255, "ARG_OF_PERICENTER": 229.3974, "MEAN_ANOMALY": 130.3451, "EPHEMERIS_TYPE": 0, "CLASSIFICATION_TYPE": "U", "NORAD_CAT_ID": 31522, "ELEMENT_SET_NO": 999, "REV_AT_EPOCH": 94852, "BSTAR": 0.00086354754, "MEAN_MOTION_DOT": 1.334e-05, "MEAN_MOTION_DDOT": 0}, "tle": {"line1": "1 31522U 99025BXM 25336.48881596  .00001334  00000+0  86355-3 0  9996", "line2": "2 31522  98.7082 355.1255 0042980 229.3974 130.3451 14.03969195948526"}}, "geometry": {"type": "Point", "coordinates": [-1.4053300135025302, -3.9206228432314454]}}, {"type": "Feature", "properties": {"norad_id": 31523, "name": "FENGYUN 1C DEB", "group": "fengyun-1c-debris", "lat": -55.969007190954905, "lon": 40.37174851547634, "alt_km": 881.2791461028055, "timestamp": "2025-12-05T11:32:56.301458+00:00", "meta": {"OBJECT_NAME": "FENGYUN 1C DEB", "OBJECT_ID": "1999-025BXN", "EPOCH": "2025-12-03T02:13:03.454176", "MEAN_MOTION": 14.1385847, "ECCENTRICITY": 0.00391375, "INCLINATION": 98.759, "RA_OF_ASC_NODE": 24.8343, "ARG_OF_PERICENTER": 136.9105, "MEAN_ANOMALY": 254.1578, "EPHEMERIS_TYPE": 0, "CLASSIFICATION_TYPE": "U", "NORAD_CAT_ID": 31523, "ELEMENT_SET_NO": 999, "REV_AT_EPOCH": 95871, "BSTAR": 3.7307448e-05, "MEAN_MOTION_DOT": 2.8e-07, "MEAN_MOTION_DDOT": 0}, "tle": {"line1": "1 31523U 99025BXN 25337.09240109  .00000028  00000+0  37307-4 0  9997", "line2": "2 31523  98.7590  24.8343 0039137 136.9105 254.1578 14.13858470958719"}}, "geometry": {"type": "Point", "coordinates": [40.37174851547634, -55.969007190954905]}}, {"type": "Feature", "properties": {"norad_id": 31527, "name": "FENGYUN 1C DEB", "group": "fengyun-1c-debris", "lat": -31.307454790317244, "lon": -39.37375745433496, "alt_km": 1259.9735503041093, "timestamp": "2025-12-05T11:32:56.301468+00:00", "meta": {"OBJECT_NAME": "FENGYUN 1C DEB", "OBJECT_ID": "1999-025BXS", "EPOCH": "2025-11-28T16:57:37.524384", "MEAN_MOTION": 13.23385857, "ECCENTRICITY": 0.04495652, "INCLINATION": 98.8931, "RA_OF_ASC_NODE": 140.2922, "ARG_OF_PERICENTER": 334.6734, "MEAN_ANOMALY": 23.2945, "EPHEMERIS_TYPE": 0, "CLASSIFICATION_TYPE": "U", "NORAD_CAT_ID": 31527, "ELEMENT_SET_NO": 999, "REV_AT_EPOCH": 90004, "BSTAR": 0.00062155533, "MEAN_MOTION_DOT": 4.13e-06, "MEAN_MOTION_DDOT": 0}, "tle": {"line1": "1 31527U 99025BXS 25332.70668431  .00000413  00000+0  62156-3 0  9993", "line2": "2 31527  98.8931 140.2922 0449565 334.6734  23.2945 13.23385857900044"}}, "geometry": {"type": "Point", "coordinates": [-39.37375745433496, -31.307454790317244]}}, {"type": "Feature", "properties": {"norad_id": 31531, "name": "FENGYUN 1C DEB", "group": "fengyun-1c-debris", "lat": 74.7387141371417, "lon": -8.270343074035546, "alt_km": 910.8415573614102, "timestamp": "2025-12-05T11:32:56.301478+00:00", "meta": {"OBJECT_NAME": "FENGYUN 1C DEB", "OBJECT_ID": "1999-025BXW", "EPOCH": "2025-12-03T20:42:43.358112", "MEAN_MOTION": 14.3554776, "ECCENTRICITY": 0.0244077, "INCLINATION": 98.3841, "RA_OF_ASC_NODE": 22.8746, "ARG_OF_PERICENTER": 295.232, "MEAN_ANOMALY": 62.3747, "EPHEMERIS_TYPE": 0, "CLASSIFICATION_TYPE": "U", "NORAD_CAT_ID": 31531, "ELEMENT_SET_NO": 999, "REV_AT_EPOCH": 63807, "BSTAR": 0.0015833, "MEAN_MOTION_DOT": 6.351e-05, "MEAN_MOTION_DDOT": 0}, "tle": {"line1": "1 31531U 99025BXW 25337.86300183  .00006351  00000+0  15833-2 0  9993", "line2": "2 31531  98.3841  22.8746 0244077 295.2320  62.3747 14.35547760638079"}}, "geometry": {"type": "Point", "coordinates": [-8.270343074035546, 74.7387141371417]}}, {"type": "Feature", "properties": {"norad_id": 31533, "name": "FENGYUN 1C DEB", "group": "fengyun-1c-debris", "lat": 81.03115975943777, "lon": 140.0335780173639, "alt_km": 783.6013569469715, "timestamp": "2025-12-05T11:32:56.301488+00:00", "meta": {"OBJECT_NAME": "FENGYUN 1C DEB", "OBJECT_ID": "1999-025BXY", "EPOCH": "2025-12-03T12:02:01.975200", "MEAN_MOTION": 14.27596802, "ECCENTRICITY": 0.00660944, "INCLINATION": 98.9605, "RA_OF_ASC_NODE": 229.4177, "ARG_OF_PERICENTER": 16.131, "MEAN_ANOMALY": 344.1954, "EPHEMERIS_TYPE": 0, "CLASSIFICATION_TYPE": "U", "NORAD_CAT_ID": 31533, "ELEMENT_SET_NO": 999, "REV_AT_EPOCH": 65991, "BSTAR": 0.00060561909, "MEAN_MOTION_DOT": 1.479e-05, "MEAN_MOTION_DDOT": 0}, "tle": {"line1": "1 31533U 99025BXY 25337.50141175  .00001479  00000+0  60562-3 0  9996", "line2": "2 31533  98.9605 229.4177 0066094  16.1310 344.1954 14.27596802659917"}}, "geometry": {"type": "Point", "coordinates": [140.0335780173639, 81.03115975943777]}}, {"type": "Feature", "properties": {"norad_id": 31535, "name": "FENGYUN 1C DEB", "group": "fengyun-1c-debris", "lat": 47.136656749897064, "lon": -178.7763270973141, "alt_km": 838.7162652114857, "timestamp": "2025-12-05T11:32:56.301498+00:00", "meta": {"OBJECT_NAME": "FENGYUN 1C DEB", "OBJECT_ID": "1999-025BYA", "EPOCH": "2025-12-02T19:25:54.598080", "MEAN_MOTION": 14.28271502, "ECCENTRICITY": 0.00872856, "INCLINATION": 98.0356, "RA_OF_ASC_NODE": 187.5187, "ARG_OF_PERICENTER": 192.6029, "MEAN_ANOMALY": 167.2972, "EPHEMERIS_TYPE": 0, "CLASSIFICATION_TYPE": "U", "NORAD_CAT_ID": 31535, "ELEMENT_SET_NO": 999, "REV_AT_EPOCH": 71789, "BSTAR": 0.0009225818, "MEAN_MOTION_DOT": 2.358e-05, "MEAN_MOTION_DDOT": 0}, "tle": {"line1": "1 31535U 99025BYA 25336.80965970  .00002358  00000+0  92258-3 0  9991", "line2": "2 31535  98.0356 187.5187 0087285 192.6029 167.2972 14.28271502717894"}}, "geometry": {"type": "Point", "coordinates": [-178.7763270973141, 47.136656749897064]}}, {"type": "Feature", "properties": {"norad_id": 31536, "name": "FENGYUN 1C DEB", "group": "fengyun-1c-debris", "lat": -57.76654015258046, "lon": -99.76216184732914, "alt_km": 861.3177348250938, "timestamp": "2025-12-05T11:32:56.301508+00:00", "meta": {"OBJECT_NAME": "FENGYUN 1C DEB", "OBJECT_ID": "1999-025BYB", "EPOCH": "2025-12-03T23:30:03.784608", "MEAN_MOTION": 14.54138211, "ECCENTRICITY": 0.02944268, "INCLINATION": 98.2363, "RA_OF_ASC_NODE": 245.4773, "ARG_OF_PERICENTER": 171.8137, "MEAN_ANOMALY": 188.8022, "EPHEMERIS_TYPE": 0, "CLASSIFICATION_TYPE": "U", "NORAD_CAT_ID": 31536, "ELEMENT_SET_NO": 999, "REV_AT_EPOCH": 96130, "BSTAR": 0.0017953349, "MEAN_MOTION_DOT": 0.00013556, "MEAN_MOTION_DDOT": 0}, "tle": {"line1": "1 31536U 99025BYB 25337.97921047  .00013556  00000+0  17953-2 0  9998", "line2": "2 31536  98.2363 245.4773 0294426 171.8137 188.8022 14.54138211961306"}}, "geometry": {"type": "Point", "coordinates": [-99.76216184732914, -57.76654015258046]}}]}